{
  "type": "FeatureCollection",
  "features": [
    {
      "type": "Feature",
      "properties": {
        "norad_id": 39617,
        "name": "ASTRA 5B (EGNOS/PRN 123)",
        "group": "gnss",
        "lat": 0.03260995512410326,
        "lon": 43.241263148185276,
        "alt_km": 35796.83107857562,
        "timestamp": "2025-12-25T19:00:39.593725+00:00",
        "meta_object_name": "ASTRA 5B (EGNOS/PRN 123)",
        "meta_object_id": "2014-011B",
        "meta_epoch": "2025-12-24T23:28:56.409888",
        "meta_mean_motion": 1.00271157,
        "meta_eccentricity": 0.00046155,
        "meta_inclination": 0.0444,
        "meta_ra_of_asc_node": 13.6619,
        "meta_arg_of_pericenter": 266.4538,
        "meta_mean_anomaly": 189.3571,
        "meta_ephemeris_type": 0,
        "meta_classification_type": "U",
        "meta_norad_cat_id": 39617,
        "meta_element_set_no": 999,
        "meta_rev_at_epoch": 4292,
        "meta_bstar": 0,
        "meta_mean_motion_dot": 1.58e-06,
        "meta_mean_motion_ddot": 0,
        "tle_line1": "1 39617U 14011B   25358.97843067  .00000158  00000+0  00000+0 0  9992",
        "tle_line2": "2 39617   0.0444  13.6619 0004615 266.4538 189.3571  1.00271157 42921"
      },
      "geometry": {
        "type": "Point",
        "coordinates": [
          43.241263148185276,
          0.03260995512410326
        ]
      }
    },
    {
      "type": "Feature",
      "properties": {
        "norad_id": 39620,
        "name": "COSMOS 2492 (754)",
        "group": "gnss",
        "lat": 52.98568522104111,
        "lon": -2.7996125930826676,
        "alt_km": 19134.397911386444,
        "timestamp": "2025-12-25T19:00:39.593736+00:00",
        "meta_object_name": "COSMOS 2492 (754)",
        "meta_object_id": "2014-012A",
        "meta_epoch": "2025-12-24T18:34:00.043104",
        "meta_mean_motion": 2.13103196,
        "meta_eccentricity": 0.0014265,
        "meta_inclination": 65.401,
        "meta_ra_of_asc_node": 319.8627,
        "meta_arg_of_pericenter": 314.554,
        "meta_mean_anomaly": 45.3312,
        "meta_ephemeris_type": 0,
        "meta_classification_type": "U",
        "meta_norad_cat_id": 39620,
        "meta_element_set_no": 999,
        "meta_rev_at_epoch": 9152,
        "meta_bstar": 0,
        "meta_mean_motion_dot": -3.2e-07,
        "meta_mean_motion_ddot": 0,
        "tle_line1": "1 39620U 14012A   25358.77361161 -.00000032  00000+0  00000+0 0  9997",
        "tle_line2": "2 39620  65.4010 319.8627 0014265 314.5540  45.3312  2.13103196 91525"
      },
      "geometry": {
        "type": "Point",
        "coordinates": [
          -2.7996125930826676,
          52.98568522104111
        ]
      }
    },
    {
      "type": "Feature",
      "properties": {
        "norad_id": 39635,
        "name": "IRNSS-1B",
        "group": "gnss",
        "lat": -5.55582569595694,
        "lon": 73.43755814307342,
        "alt_km": 35711.65548495119,
        "timestamp": "2025-12-25T19:00:39.593748+00:00",
        "meta_object_name": "IRNSS-1B",
        "meta_object_id": "2014-017A",
        "meta_epoch": "2025-12-24T18:29:47.559840",
        "meta_mean_motion": 1.00272104,
        "meta_eccentricity": 0.00185731,
        "meta_inclination": 29.2343,
        "meta_ra_of_asc_node": 243.3872,
        "meta_arg_of_pericenter": 174.7097,
        "meta_mean_anomaly": 8.021,
        "meta_ephemeris_type": 0,
        "meta_classification_type": "U",
        "meta_norad_cat_id": 39635,
        "meta_element_set_no": 999,
        "meta_rev_at_epoch": 4304,
        "meta_bstar": 0,
        "meta_mean_motion_dot": 1.4e-06,
        "meta_mean_motion_ddot": 0,
        "tle_line1": "1 39635U 14017A   25358.77068935  .00000140  00000+0  00000+0 0  9990",
        "tle_line2": "2 39635  29.2343 243.3872 0018573 174.7097   8.0210  1.00272104 43048"
      },
      "geometry": {
        "type": "Point",
        "coordinates": [
          73.43755814307342,
          -5.55582569595694
        ]
      }
    },
    {
      "type": "Feature",
      "properties": {
        "norad_id": 39727,
        "name": "LUCH 5V (SDCM/PRN 141)",
        "group": "gnss",
        "lat": 3.2238637935430785,
        "lon": 114.35018897526437,
        "alt_km": 35800.766663452676,
        "timestamp": "2025-12-25T19:00:39.593774+00:00",
        "meta_object_name": "LUCH 5V (SDCM/PRN 141)",
        "meta_object_id": "2014-023A",
        "meta_epoch": "2025-12-25T05:10:38.820576",
        "meta_mean_motion": 1.00274119,
        "meta_eccentricity": 0.0003748,
        "meta_inclination": 4.6992,
        "meta_ra_of_asc_node": 71.4323,
        "meta_arg_of_pericenter": 214.6327,
        "meta_mean_anomaly": 340.3172,
        "meta_ephemeris_type": 0,
        "meta_classification_type": "U",
        "meta_norad_cat_id": 39727,
        "meta_element_set_no": 999,
        "meta_rev_at_epoch": 4261,
        "meta_bstar": 0,
        "meta_mean_motion_dot": -2.5e-06,
        "meta_mean_motion_ddot": 0,
        "tle_line1": "1 39727U 14023A   25359.21572709 -.00000250  00000+0  00000+0 0  9991",
        "tle_line2": "2 39727   4.6992  71.4323 0003748 214.6327 340.3172  1.00274119 42615"
      },
      "geometry": {
        "type": "Point",
        "coordinates": [
          114.35018897526437,
          3.2238637935430785
        ]
      }
    },
    {
      "type": "Feature",
      "properties": {
        "norad_id": 39741,
        "name": "GPS BIIF-6  (PRN 06)",
        "group": "gnss",
        "lat": -46.94961520616548,
        "lon": -156.78060851638924,
        "alt_km": 20165.97829313713,
        "timestamp": "2025-12-25T19:00:39.593788+00:00",
        "meta_object_name": "GPS BIIF-6  (PRN 06)",
        "meta_object_id": "2014-026A",
        "meta_epoch": "2025-12-24T23:00:25.010784",
        "meta_mean_motion": 2.00560429,
        "meta_eccentricity": 0.00394828,
        "meta_inclination": 56.5788,
        "meta_ra_of_asc_node": 338.3014,
        "meta_arg_of_pericenter": 319.3723,
        "meta_mean_anomaly": 40.3399,
        "meta_ephemeris_type": 0,
        "meta_classification_type": "U",
        "meta_norad_cat_id": 39741,
        "meta_element_set_no": 999,
        "meta_rev_at_epoch": 8504,
        "meta_bstar": 0,
        "meta_mean_motion_dot": -5.8e-07,
        "meta_mean_motion_ddot": 0,
        "tle_line1": "1 39741U 14026A   25358.95862281 -.00000058  00000+0  00000+0 0  9993",
        "tle_line2": "2 39741  56.5788 338.3014 0039482 319.3723  40.3399  2.00560429 85044"
      },
      "geometry": {
        "type": "Point",
        "coordinates": [
          -156.78060851638924,
          -46.94961520616548
        ]
      }
    },
    {
      "type": "Feature",
      "properties": {
        "norad_id": 40001,
        "name": "COSMOS 2500 (755)",
        "group": "gnss",
        "lat": -58.97472212380877,
        "lon": -90.18849357253752,
        "alt_km": 19129.15681591506,
        "timestamp": "2025-12-25T19:00:39.593802+00:00",
        "meta_object_name": "COSMOS 2500 (755)",
        "meta_object_id": "2014-032A",
        "meta_epoch": "2025-12-24T22:41:43.592352",
        "meta_mean_motion": 2.13106238,
        "meta_eccentricity": 0.0007709,
        "meta_inclination": 65.3365,
        "meta_ra_of_asc_node": 319.6177,
        "meta_arg_of_pericenter": 219.4903,
        "meta_mean_anomaly": 140.4561,
        "meta_ephemeris_type": 0,
        "meta_classification_type": "U",
        "meta_norad_cat_id": 40001,
        "meta_element_set_no": 999,
        "meta_rev_at_epoch": 8974,
        "meta_bstar": 0,
        "meta_mean_motion_dot": -3.2e-07,
        "meta_mean_motion_ddot": 0,
        "tle_line1": "1 40001U 14032A   25358.94564343 -.00000032  00000+0  00000+0 0  9990",
        "tle_line2": "2 40001  65.3365 319.6177 0007709 219.4903 140.4561  2.13106238 89745"
      },
      "geometry": {
        "type": "Point",
        "coordinates": [
          -90.18849357253752,
          -58.97472212380877
        ]
      }
    },
    {
      "type": "Feature",
      "properties": {
        "norad_id": 40105,
        "name": "GPS BIIF-7  (PRN 09)",
        "group": "gnss",
        "lat": 0.05806960191897452,
        "lon": -84.65693489036299,
        "alt_km": 20138.025929739724,
        "timestamp": "2025-12-25T19:00:39.593814+00:00",
        "meta_object_name": "GPS BIIF-7  (PRN 09)",
        "meta_object_id": "2014-045A",
        "meta_epoch": "2025-12-23T13:11:32.096256",
        "meta_mean_motion": 2.00573211,
        "meta_eccentricity": 0.00324114,
        "meta_inclination": 55.2352,
        "meta_ra_of_asc_node": 95.4677,
        "meta_arg_of_pericenter": 120.1575,
        "meta_mean_anomaly": 240.1743,
        "meta_ephemeris_type": 0,
        "meta_classification_type": "U",
        "meta_norad_cat_id": 40105,
        "meta_element_set_no": 999,
        "meta_rev_at_epoch": 8255,
        "meta_bstar": 0,
        "meta_mean_motion_dot": 8e-08,
        "meta_mean_motion_ddot": 0,
        "tle_line1": "1 40105U 14045A   25357.54967704  .00000008  00000+0  00000+0 0  9994",
        "tle_line2": "2 40105  55.2352  95.4677 0032411 120.1575 240.1743  2.00573211 82556"
      },
      "geometry": {
        "type": "Point",
        "coordinates": [
          -84.65693489036299,
          0.05806960191897452
        ]
      }
    }
  ]
}